{
  "norad_id": 64448,
  "name": "STARLINK-34433",
  "history": [
    {
      "epoch": "2026-03-28T22:11:10.588704Z",
      "apogee_km": 475.80993294144537,
      "perigee_km": 474.48998987267805,
      "latitude_deg": -1.6315532478696476e-05,
      "longitude_deg": -159.62952561410285,
      "height_km": 476.33539880735157,
      "semi_major_axis_km": 6853.286961407061,
      "eccentricity": 9.63e-05,
      "inclination_deg": 53.1606,
      "raan_deg": 359.5025,
      "arg_perigee_deg": 115.7529,
      "mean_anomaly_deg": 244.3571,
      "mean_motion_rev_day": 15.30221806
    },
    {
      "epoch": "2026-03-28T23:45:13.618944Z",
      "apogee_km": 475.6584133635042,
      "perigee_km": 474.6619439537262,
      "latitude_deg": 6.877172599980725e-06,
      "longitude_deg": 176.48969035703666,
      "height_km": 476.3914946016617,
      "semi_major_axis_km": 6853.297178658615,
      "eccentricity": 7.27e-05,
      "inclination_deg": 53.1609,
      "raan_deg": 359.1987,
      "arg_perigee_deg": 131.8143,
      "mean_anomaly_deg": 228.292,
      "mean_motion_rev_day": 15.30218384
    },
    {
      "epoch": "2026-03-30T00:50:05.243424Z",
      "apogee_km": 476.1040404300311,
      "perigee_km": 474.49211250004555,
      "latitude_deg": -2.508239738360367e-05,
      "longitude_deg": 154.39062474185187,
      "height_km": 475.8630379107396,
      "semi_major_axis_km": 6853.435076465038,
      "eccentricity": 0.0001176,
      "inclination_deg": 53.1599,
      "raan_deg": 354.3448,
      "arg_perigee_deg": 65.5668,
      "mean_anomaly_deg": 294.5455,
      "mean_motion_rev_day": 15.301722
    }
  ]
}